[{"OBJECT_NAME":"FOREST-3","OBJECT_ID":"2025-009CB","EPOCH":"2026-03-09T16:52:36.334848","MEAN_MOTION":15.23505035,"ECCENTRICITY":0.00043691,"INCLINATION":97.3949,"RA_OF_ASC_NODE":149.5432,"ARG_OF_PERICENTER":350.1299,"MEAN_ANOMALY":9.9851,"EPHEMERIS_TYPE":0,"CLASSIFICATION_TYPE":"U","NORAD_CAT_ID":62682,"ELEMENT_SET_NO":999,"REV_AT_EPOCH":12128,"BSTAR":0.000357114,"MEAN_MOTION_DOT":8.458e-5,"MEAN_MOTION_DDOT":0},{"OBJECT_NAME":"CZ-6A DEB","OBJECT_ID":"2022-151NB","EPOCH":"2026-03-09T18:26:17.609568","MEAN_MOTION":15.22372787,"ECCENTRICITY":0.00267955,"INCLINATION":98.6489,"RA_OF_ASC_NODE":154.0342,"ARG_OF_PERICENTER":180.4296,"MEAN_ANOMALY":179.6918,"EPHEMERIS_TYPE":0,"CLASSIFICATION_TYPE":"U","NORAD_CAT_ID":54601,"ELEMENT_SET_NO":999,"REV_AT_EPOCH":17694,"BSTAR":0.011449911,"MEAN_MOTION_DOT":0.00276508,"MEAN_MOTION_DDOT":0}]
